[{"OBJECT_NAME":"STARLINK-33826","OBJECT_ID":"2025-083H","EPOCH":"2026-03-09T04:47:52.440864","MEAN_MOTION":15.27587536,"ECCENTRICITY":0.00014238,"INCLINATION":43.0033,"RA_OF_ASC_NODE":7.8334,"ARG_OF_PERICENTER":247.1375,"MEAN_ANOMALY":112.9326,"EPHEMERIS_TYPE":0,"CLASSIFICATION_TYPE":"U","NORAD_CAT_ID":63641,"ELEMENT_SET_NO":999,"REV_AT_EPOCH":4999,"BSTAR":0.0015460003,"MEAN_MOTION_DOT":0.00042536,"MEAN_MOTION_DDOT":0},{"OBJECT_NAME":"CZ-6A DEB","OBJECT_ID":"2024-140PU","EPOCH":"2026-03-09T02:24:11.901600","MEAN_MOTION":14.96529453,"ECCENTRICITY":0.01989751,"INCLINATION":89.1479,"RA_OF_ASC_NODE":289.7131,"ARG_OF_PERICENTER":96.8489,"MEAN_ANOMALY":265.5425,"EPHEMERIS_TYPE":0,"CLASSIFICATION_TYPE":"U","NORAD_CAT_ID":61126,"ELEMENT_SET_NO":999,"REV_AT_EPOCH":8404,"BSTAR":0.00070354239,"MEAN_MOTION_DOT":0.00012037,"MEAN_MOTION_DDOT":0}]
